{
    "links": {
        "self": "http://www.neowsapp.com/rest/v1/neo/3789430?api_key=iIulBulltgU6a56xZRHN4H3l9WmuAYTsLGpBGhQ2"
    },
    "id": "3789430",
    "neo_reference_id": "3789430",
    "name": "(2017 VF15)",
    "designation": "2017 VF15",
    "nasa_jpl_url": "http://ssd.jpl.nasa.gov/sbdb.cgi?sstr=3789430",
    "absolute_magnitude_h": 26.4,
    "estimated_diameter": {
        "kilometers": {
            "estimated_diameter_min": 0.0139493823,
            "estimated_diameter_max": 0.0311917671
        },
        "meters": {
            "estimated_diameter_min": 13.9493822934,
            "estimated_diameter_max": 31.1917670523
        },
        "miles": {
            "estimated_diameter_min": 0.0086677416,
            "estimated_diameter_max": 0.0193816595
        },
        "feet": {
            "estimated_diameter_min": 45.7656914036,
            "estimated_diameter_max": 102.3351970157
        }
    },
    "is_potentially_hazardous_asteroid": false,
    "close_approach_data": [
        {
            "close_approach_date": "2012-07-09",
            "close_approach_date_full": "2012-Jul-09 13:55",
            "epoch_date_close_approach": 1341842100000,
            "relative_velocity": {
                "kilometers_per_second": "7.6793123512",
                "kilometers_per_hour": "27645.5244642422",
                "miles_per_hour": "17177.8537983509"
            },
            "miss_distance": {
                "astronomical": "0.0908822022",
                "lunar": "35.3531766558",
                "kilometers": "13595783.870029314",
                "miles": "8448028.3565559732"
            },
            "orbiting_body": "Mars"
        },
        {
            "close_approach_date": "2017-05-26",
            "close_approach_date_full": "2017-May-26 00:22",
            "epoch_date_close_approach": 1495758120000,
            "relative_velocity": {
                "kilometers_per_second": "8.9317576184",
                "kilometers_per_hour": "32154.3274261078",
                "miles_per_hour": "19979.4486165168"
            },
            "miss_distance": {
                "astronomical": "0.4661346832",
                "lunar": "181.3263917648",
                "kilometers": "69732755.739844784",
                "miles": "43329925.1814106592"
            },
            "orbiting_body": "Earth"
        },
        {
            "close_approach_date": "2017-11-09",
            "close_approach_date_full": "2017-Nov-09 15:20",
            "epoch_date_close_approach": 1510240800000,
            "relative_velocity": {
                "kilometers_per_second": "11.435508545",
                "kilometers_per_hour": "41167.8307620601",
                "miles_per_hour": "25580.0890643479"
            },
            "miss_distance": {
                "astronomical": "0.0358457253",
                "lunar": "13.9439871417",
                "kilometers": "5362444.153485111",
                "miles": "3332068.2869160918"
            },
            "orbiting_body": "Earth"
        },
        {
            "close_approach_date": "2091-06-10",
            "close_approach_date_full": "2091-Jun-10 11:17",
            "epoch_date_close_approach": 3832312620000,
            "relative_velocity": {
                "kilometers_per_second": "21.0687495803",
                "kilometers_per_hour": "75847.4984889792",
                "miles_per_hour": "47128.6859361104"
            },
            "miss_distance": {
                "astronomical": "0.4179565911",
                "lunar": "162.5851139379",
                "kilometers": "62525415.781020957",
                "miles": "38851491.7987129266"
            },
            "orbiting_body": "Earth"
        },
        {
            "close_approach_date": "2160-06-16",
            "close_approach_date_full": "2160-Jun-16 15:49",
            "epoch_date_close_approach": 6010300140000,
            "relative_velocity": {
                "kilometers_per_second": "17.4789463812",
                "kilometers_per_hour": "62924.2069723963",
                "miles_per_hour": "39098.6551601537"
            },
            "miss_distance": {
                "astronomical": "0.3074420595",
                "lunar": "119.5949611455",
                "kilometers": "45992677.249613265",
                "miles": "28578524.439122457"
            },
            "orbiting_body": "Earth"
        }
    ],
    "orbital_data": {
        "orbit_id": "2",
        "orbit_determination_date": "2019-07-19 05:26:31",
        "first_observation_date": "2017-11-15",
        "last_observation_date": "2017-11-19",
        "data_arc_in_days": 4,
        "observations_used": 25,
        "orbit_uncertainty": "8",
        "minimum_orbit_intersection": ".0347127",
        "jupiter_tisserand_invariant": "4.726",
        "epoch_osculation": "2458075.5",
        "eccentricity": ".3583044922164711",
        "semi_major_axis": "1.371303479401784",
        "inclination": "13.54059917091294",
        "ascending_node_longitude": "54.14205380464212",
        "orbital_period": "586.5415652206544",
        "perihelion_distance": ".8799592825400474",
        "perihelion_argument": "293.7035979291928",
        "aphelion_distance": "1.86264767626352",
        "perihelion_time": "2458019.859256087469",
        "mean_anomaly": "34.15046604749266",
        "mean_motion": ".6137672440393368",
        "equinox": "J2000",
        "orbit_class": {
            "orbit_class_type": "APO",
            "orbit_class_description": "Near-Earth asteroid orbits which cross the Earth’s orbit similar to that of 1862 Apollo",
            "orbit_class_range": "a (semi-major axis) > 1.0 AU; q (perihelion) < 1.017 AU"
        }
    },
    "is_sentry_object": false
}